start=new Date('2022-12-30T00:00:00.000Z').valueOf();
sats=[{"CENTER_NAME":"EARTH","EPHEMERIS_TYPE":"0","PERIOD":"95.438","REF_FRAME":"TEME","PERIAPSIS":"538.022","TLE_LINE1":"1 49455U 21104AZ  22363.83605943 -.00002528  00000-0 -14078-3 0  9991","RA_OF_ASC_NODE":"52.8562","MEAN_ELEMENT_THEORY":"SGP4","INCLINATION":"53.2168","MEAN_MOTION_DOT":"-0.00002528","OBJECT_TYPE":"PAYLOAD","SEMIMAJOR_AXIS":"6917.908","MEAN_ANOMALY":"328.9452","MEAN_MOTION":"15.08831055","COUNTRY_CODE":"US","FILE":"3726088","ARG_OF_PERICENTER":"31.1690","CLASSIFICATION_TYPE":"U","NORAD_CAT_ID":"49455","LAUNCH_DATE":"2021-11-13","MEAN_MOTION_DDOT":"0.0000000000000","TLE_LINE2":"2 49455  53.2168  52.8562 0002530  31.1690 328.9452 15.08831055 63842","SITE":"AFETR","GP_ID":"221749310","REV_AT_EPOCH":"6384","TIME_SYSTEM":"UTC","BSTAR":"-0.00014078000000","OBJECT_ID":"2021-104AZ","APOAPSIS":"541.523","ECCENTRICITY":"0.00025300","EPOCH":"2022-12-29T20:03:55.534752","DECAY_DATE":null,"OBJECT_NAME":"STARLINK-3145","RCS_SIZE":"LARGE","ELEMENT_SET_NO":"999"},{"MEAN_ELEMENT_THEORY":"SGP4","RA_OF_ASC_NODE":"54.5975","TLE_LINE1":"1 49456U 21104BA  22363.44597667 -.00007890  00000-0 -47851-3 0  9994","MEAN_MOTION_DOT":"-0.00007890","INCLINATION":"53.2165","SEMIMAJOR_AXIS":"6917.953","OBJECT_TYPE":"PAYLOAD","MEAN_MOTION":"15.08816382","MEAN_ANOMALY":"300.5653","CENTER_NAME":"EARTH","EPHEMERIS_TYPE":"0","PERIAPSIS":"538.765","REF_FRAME":"TEME","PERIOD":"95.439","APOAPSIS":"540.870","OBJECT_ID":"2021-104BA","BSTAR":"-0.00047851000000","EPOCH":"2022-12-29T10:42:12.384288","ECCENTRICITY":"0.00015210","RCS_SIZE":"LARGE","ELEMENT_SET_NO":"999","OBJECT_NAME":"STARLINK-3124","DECAY_DATE":null,"FILE":"3725790","COUNTRY_CODE":"US","CLASSIFICATION_TYPE":"U","ARG_OF_PERICENTER":"59.5489","TLE_LINE2":"2 49456  53.2165  54.5975 0001521  59.5489 300.5653 15.08816382 62716","SITE":"AFETR","LAUNCH_DATE":"2021-11-13","MEAN_MOTION_DDOT":"0.0000000000000","NORAD_CAT_ID":"49456","TIME_SYSTEM":"UTC","GP_ID":"221738792","REV_AT_EPOCH":"6271"},{"MEAN_ELEMENT_THEORY":"SGP4","RA_OF_ASC_NODE":"53.7629","TLE_LINE1":"1 49457U 21104BB  22363.63366693 -.00003660  00000-0 -21202-3 0  9992","INCLINATION":"53.2166","MEAN_MOTION_DOT":"-0.00003660","SEMIMAJOR_AXIS":"6917.929","OBJECT_TYPE":"PAYLOAD","MEAN_MOTION":"15.08824124","MEAN_ANOMALY":"333.6686","CENTER_NAME":"EARTH","EPHEMERIS_TYPE":"0","PERIAPSIS":"538.004","REF_FRAME":"TEME","PERIOD":"95.439","APOAPSIS":"541.584","BSTAR":"-0.00021202000000","OBJECT_ID":"2021-104BB","EPOCH":"2022-12-29T15:12:28.822752","ECCENTRICITY":"0.00025870","ELEMENT_SET_NO":"999","RCS_SIZE":"LARGE","DECAY_DATE":null,"OBJECT_NAME":"STARLINK-3132","FILE":"3725830","COUNTRY_CODE":"US","CLASSIFICATION_TYPE":"U","ARG_OF_PERICENTER":"26.4438","MEAN_MOTION_DDOT":"0.0000000000000","LAUNCH_DATE":"2021-11-13","TLE_LINE2":"2 49457  53.2166  53.7629 0002587  26.4438 333.6686 15.08824124 63813","SITE":"AFETR","NORAD_CAT_ID":"49457","TIME_SYSTEM":"UTC","REV_AT_EPOCH":"6381","GP_ID":"221742285"},{"MEAN_ELEMENT_THEORY":"SGP4","RA_OF_ASC_NODE":"54.0196","TLE_LINE1":"1 49458U 21104BC  22363.57477372 -.00003850  00000-0 -22413-3 0  9999","INCLINATION":"53.2162","MEAN_MOTION_DOT":"-0.00003850","SEMIMAJOR_AXIS":"6917.970","OBJECT_TYPE":"PAYLOAD","MEAN_MOTION":"15.08810665","MEAN_ANOMALY":"296.9935","CENTER_NAME":"EARTH","EPHEMERIS_TYPE":"0","PERIAPSIS":"538.713","PERIOD":"95.439","REF_FRAME":"TEME","APOAPSIS":"540.957","BSTAR":"-0.00022413000000","OBJECT_ID":"2021-104BC","EPOCH":"2022-12-29T13:47:40.449408","ECCENTRICITY":"0.00016220","RCS_SIZE":"LARGE","ELEMENT_SET_NO":"999","DECAY_DATE":null,"OBJECT_NAME":"STARLINK-3156","FILE":"3725836","COUNTRY_CODE":"US","CLASSIFICATION_TYPE":"U","ARG_OF_PERICENTER":"63.1223","MEAN_MOTION_DDOT":"0.0000000000000","LAUNCH_DATE":"2021-11-13","TLE_LINE2":"2 49458  53.2162  54.0196 0001622  63.1223 296.9935 15.08810665 63815","SITE":"AFETR","NORAD_CAT_ID":"49458","TIME_SYSTEM":"UTC","REV_AT_EPOCH":"6381","GP_ID":"221742382"},{"BSTAR":"-0.00027097000000","OBJECT_ID":"2021-104BD","APOAPSIS":"541.614","DECAY_DATE":null,"OBJECT_NAME":"STARLINK-3141","RCS_SIZE":"LARGE","ELEMENT_SET_NO":"999","ECCENTRICITY":"0.00026450","EPOCH":"2022-12-29T13:31:47.670816","ARG_OF_PERICENTER":"30.0418","CLASSIFICATION_TYPE":"U","COUNTRY_CODE":"US","FILE":"3725790","GP_ID":"221740043","REV_AT_EPOCH":"6273","TIME_SYSTEM":"UTC","NORAD_CAT_ID":"49459","LAUNCH_DATE":"2021-11-13","MEAN_MOTION_DDOT":"0.0000000000000","SITE":"AFETR","TLE_LINE2":"2 49459  53.2183  54.0764 0002645  30.0418 330.0726 15.08827381 62736","INCLINATION":"53.2183","MEAN_MOTION_DOT":"-0.00004597","TLE_LINE1":"1 49459U 21104BD  22363.56374619 -.00004597  00000-0 -27097-3 0  9991","RA_OF_ASC_NODE":"54.0764","MEAN_ELEMENT_THEORY":"SGP4","MEAN_ANOMALY":"330.0726","MEAN_MOTION":"15.08827381","OBJECT_TYPE":"PAYLOAD","SEMIMAJOR_AXIS":"6917.919","EPHEMERIS_TYPE":"0","CENTER_NAME":"EARTH","PERIOD":"95.438","REF_FRAME":"TEME","PERIAPSIS":"537.954"},{"OBJECT_TYPE":"PAYLOAD","SEMIMAJOR_AXIS":"6917.932","MEAN_ANOMALY":"322.6192","MEAN_MOTION":"15.08823029","TLE_LINE1":"1 49460U 21104BE  22363.42757732 -.00004850  00000-0 -28695-3 0  9996","MEAN_ELEMENT_THEORY":"SGP4","RA_OF_ASC_NODE":"54.6891","INCLINATION":"53.2181","MEAN_MOTION_DOT":"-0.00004850","REF_FRAME":"TEME","PERIOD":"95.439","PERIAPSIS":"538.224","CENTER_NAME":"EARTH","EPHEMERIS_TYPE":"0","ECCENTRICITY":"0.00022740","EPOCH":"2022-12-29T10:15:42.680448","DECAY_DATE":null,"OBJECT_NAME":"STARLINK-3140","RCS_SIZE":"LARGE","ELEMENT_SET_NO":"999","BSTAR":"-0.00028695000000","OBJECT_ID":"2021-104BE","APOAPSIS":"541.370","NORAD_CAT_ID":"49460","MEAN_MOTION_DDOT":"0.0000000000000","LAUNCH_DATE":"2021-11-13","TLE_LINE2":"2 49460  53.2181  54.6891 0002274  37.4959 322.6192 15.08823029 62708","SITE":"AFETR","GP_ID":"221738293","REV_AT_EPOCH":"6270","TIME_SYSTEM":"UTC","COUNTRY_CODE":"US","FILE":"3725790","ARG_OF_PERICENTER":"37.4959","CLASSIFICATION_TYPE":"U"},{"COUNTRY_CODE":"US","FILE":"3726093","ARG_OF_PERICENTER":"31.0210","CLASSIFICATION_TYPE":"U","NORAD_CAT_ID":"49724","TLE_LINE2":"2 49724  53.2175 343.5722 0002700  31.0210 329.0942 15.08825930 60616","SITE":"AFETR","MEAN_MOTION_DDOT":"0.0000000000000","LAUNCH_DATE":"2021-12-02","REV_AT_EPOCH":"6061","GP_ID":"221749392","TIME_SYSTEM":"UTC","OBJECT_ID":"2021-115A","BSTAR":"-0.00022769000000","APOAPSIS":"541.656","ECCENTRICITY":"0.00027000","EPOCH":"2022-12-29T16:10:48.915264","OBJECT_NAME":"STARLINK-3219","DECAY_DATE":null,"RCS_SIZE":"LARGE","ELEMENT_SET_NO":"999","CENTER_NAME":"EARTH","EPHEMERIS_TYPE":"0","PERIOD":"95.438","REF_FRAME":"TEME","PERIAPSIS":"537.921","TLE_LINE1":"1 49724U 21115A   22363.67417726 -.00003909  00000-0 -22769-3 0  9994","MEAN_ELEMENT_THEORY":"SGP4","RA_OF_ASC_NODE":"343.5722","MEAN_MOTION_DOT":"-0.00003909","INCLINATION":"53.2175","OBJECT_TYPE":"PAYLOAD","SEMIMAJOR_AXIS":"6917.923","MEAN_ANOMALY":"329.0942","MEAN_MOTION":"15.08825930"},{"ARG_OF_PERICENTER":"30.7295","CLASSIFICATION_TYPE":"U","COUNTRY_CODE":"US","FILE":"3725813","REV_AT_EPOCH":"6061","GP_ID":"221742050","TIME_SYSTEM":"UTC","NORAD_CAT_ID":"49725","LAUNCH_DATE":"2021-12-02","MEAN_MOTION_DDOT":"0.0000000000000","TLE_LINE2":"2 49725  53.2169 343.7321 0002944  30.7295 329.3869 15.08817226 60616","SITE":"AFETR","BSTAR":"-0.00028560000000","OBJECT_ID":"2021-115B","APOAPSIS":"541.852","DECAY_DATE":null,"OBJECT_NAME":"STARLINK-3218","RCS_SIZE":"LARGE","ELEMENT_SET_NO":"999","ECCENTRICITY":"0.00029440","EPOCH":"2022-12-29T15:23:07.589184","EPHEMERIS_TYPE":"0","CENTER_NAME":"EARTH","PERIOD":"95.439","REF_FRAME":"TEME","PERIAPSIS":"537.778","INCLINATION":"53.2169","MEAN_MOTION_DOT":"-0.00004829","TLE_LINE1":"1 49725U 21115B   22363.64106006 -.00004829  00000-0 -28560-3 0  9995","MEAN_ELEMENT_THEORY":"SGP4","RA_OF_ASC_NODE":"343.7321","MEAN_ANOMALY":"329.3869","MEAN_MOTION":"15.08817226","OBJECT_TYPE":"PAYLOAD","SEMIMAJOR_AXIS":"6917.950"},{"OBJECT_NAME":"STARLINK-3237","DECAY_DATE":null,"ELEMENT_SET_NO":"999","RCS_SIZE":"LARGE","ECCENTRICITY":"0.00025060","EPOCH":"2022-12-29T16:02:48.956352","OBJECT_ID":"2021-115C","BSTAR":"-0.00017603000000","APOAPSIS":"541.510","GP_ID":"221748925","REV_AT_EPOCH":"6047","TIME_SYSTEM":"UTC","NORAD_CAT_ID":"49726","SITE":"AFETR","TLE_LINE2":"2 49726  53.2185 353.6037 0002506  27.0151 333.0971 15.08829865 60475","MEAN_MOTION_DDOT":"0.0000000000000","LAUNCH_DATE":"2021-12-02","ARG_OF_PERICENTER":"27.0151","CLASSIFICATION_TYPE":"U","COUNTRY_CODE":"US","FILE":"3726094","MEAN_ANOMALY":"333.0971","MEAN_MOTION":"15.08829865","OBJECT_TYPE":"PAYLOAD","SEMIMAJOR_AXIS":"6917.911","MEAN_MOTION_DOT":"-0.00003088","INCLINATION":"53.2185","TLE_LINE1":"1 49726U 21115C   22363.66862218 -.00003088  00000-0 -17603-3 0  9994","RA_OF_ASC_NODE":"353.6037","MEAN_ELEMENT_THEORY":"SGP4","PERIOD":"95.438","REF_FRAME":"TEME","PERIAPSIS":"538.043","EPHEMERIS_TYPE":"0","CENTER_NAME":"EARTH"},{"MEAN_MOTION_DOT":"-0.00003739","INCLINATION":"53.2173","MEAN_ELEMENT_THEORY":"SGP4","RA_OF_ASC_NODE":"354.7758","TLE_LINE1":"1 49727U 21115D   22363.40734080 -.00003739  00000-0 -21693-3 0  9999","MEAN_MOTION":"15.08832371","MEAN_ANOMALY":"330.7657","SEMIMAJOR_AXIS":"6917.904","OBJECT_TYPE":"PAYLOAD","EPHEMERIS_TYPE":"0","CENTER_NAME":"EARTH","PERIAPSIS":"537.845","REF_FRAME":"TEME","PERIOD":"95.438","APOAPSIS":"541.693","OBJECT_ID":"2021-115D","BSTAR":"-0.00021693000000","RCS_SIZE":"LARGE","ELEMENT_SET_NO":"999","OBJECT_NAME":"STARLINK-3242","DECAY_DATE":null,"EPOCH":"2022-12-29T09:46:34.245120","ECCENTRICITY":"0.00027810","CLASSIFICATION_TYPE":"U","ARG_OF_PERICENTER":"29.3491","FILE":"3725790","COUNTRY_CODE":"US","TIME_SYSTEM":"UTC","GP_ID":"221739556","REV_AT_EPOCH":"5932","TLE_LINE2":"2 49727  53.2173 354.7758 0002781  29.3491 330.7657 15.08832371 59325","SITE":"AFETR","MEAN_MOTION_DDOT":"0.0000000000000","LAUNCH_DATE":"2021-12-02","NORAD_CAT_ID":"49727"}];
